CUBEBUG-2 (LO-74)       
1 39440U 13066AA  26154.33051700  .00005093  00000+0  47123-3 0  9999
2 39440  97.8904 103.2522 0059453  73.9566 286.8190 14.93641817674922
FUNCUBE-1 (AO-73)       
1 39444U 13066AE  26155.59353272  .00008112  00000+0  50553-3 0  9997
2 39444  97.8278 126.7780 0034647 245.3456 114.4162 15.09331351677764
UWE-3                   
1 39446U 13066AG  26155.64928530  .00004713  00000+0  40572-3 0  9993
2 39446  97.8702 111.6406 0049326   3.6109 356.5458 14.96922367675703
UNISAT-6                
1 40012U 14033C   26155.96357532  .00004154  00000+0  44767-3 0  9991
2 40012  97.7872 308.8923 0046448 108.4393 252.1881 14.88176164644340
DUCHIFAT-1              
1 40021U 14033M   26155.66830056  .00095076  00000+0  10761-2 0  9994
2 40021  98.0472 213.0954 0004852 139.0185 221.1436 15.62101054653793
QB50P1                  
1 40025U 14033R   26156.02260228  .00009267  00000+0  45812-3 0  9990
2 40025  98.0971 166.3174 0007004 266.2794  93.7637 15.18067732651188
LILACSAT-2              
1 40908U 15049K   26156.14504888  .00020608  00000+0  35563-3 0  9998
2 40908  97.4655 192.5317 0005360 303.7976  56.2765 15.51034080593887
FOX-1A (AO-85)          
1 40967U 15058D   26155.94350759  .00003528  00000+0  31879-3 0  9994
2 40967  64.7764 317.0315 0129804  61.3870 300.0228 14.90905473111742
CAS-2T & KS-1Q          
1 41847U 16066G   26155.63484800  .00001982  00000+0  28545-3 0  9991
2 41847  98.3817 231.5141 0342302 167.4688 193.5290 14.44651724502984
RADFXSAT (FOX-1B)       
1 43017U 17073E   26155.17612321  .00011345  00000+0  49455-3 0  9998
2 43017  97.4712  22.6585 0151546  14.2510 346.2924 15.12484658463423
DIWATA-2B               
1 43678U 18084H   26156.16584791  .00002805  00000+0  22820-3 0  9991
2 43678  98.1153 351.8538 0011794 210.4526 149.6013 15.00392849414411
ES'HAIL 2               
1 43700U 18090A   26156.14058514  .00000156  00000+0  00000+0 0  9990
2 43700   0.0174   3.7744 0001959 103.1702 223.0342  1.00272936 27556
FOX-1CLIFF (AO-95)      
1 43770U 18099N   26156.08244416  .00010962  00000+0  42280-3 0  9993
2 43770  97.4389 216.3757 0009283  40.1659 320.0264 15.26442922411371
ITASAT                  
1 43786U 18099AE  26155.76879904  .00008050  00000+0  38812-3 0  9991
2 43786  97.4029 207.5292 0013386  42.5904 317.6366 15.18892221411022
JY1SAT (JO-97)          
1 43803U 18099AX  26155.63215683  .00018538  00000+0  57877-3 0  9999
2 43803  97.4135 218.4269 0004291 324.7580  35.3378 15.33239560411705
UWE-4                   
1 43880U 18111E   26156.04483588  .00034971  00000+0  73225-3 0  9990
2 43880  97.5859  83.8833 0007898  27.7618 332.4050 15.45332944408902
TIANYAN 01              
1 44881U 19093C   26156.19764993  .00000471  00000+0  59161-4 0  9992
2 44881  97.7532 228.7216 0014688 122.5332 237.7305 14.86497461349635
RS-44 & BREEZE-KM R/B   
1 44909U 19096E   26155.96522242  .00000006  00000+0 -23756-4 0  9995
2 44909  82.5219 347.8284 0217627 172.6842 187.7525 12.79748585300785
SALSAT                  
1 46495U 20068K   26155.97862976  .00008911  00000+0  31300-3 0  9995
2 46495  97.8851 158.3021 0009245 356.4519   3.6652 15.29615280313492
XW-3 (CAS-9)            
1 50466U 21131B   26156.18388390  .00000634  00000+0  20962-3 0  9993
2 50466  98.4978 248.6387 0005097 124.3501 235.8171 14.41346490233385
GREENCUBE (IO-117)      
1 53109U 22080E   26152.46502029 -.00000003  00000+0  00000+0 0  9996
2 53109  70.1435 303.7143 0008869 293.3663  66.6064  6.42583280 91055
UMKA 1 (RS40S)          
1 57172U 23091G   26156.11847471  .00007858  00000+0  35997-3 0  9993
2 57172  97.5052 214.8631 0013554 155.8474 204.3399 15.20674495162179
CUBESX-HSE 3 (RS42S)    
1 57178U 23091N   26156.08294595  .00016120  00000+0  54085-3 0  9999
2 57178  97.5092 221.5198 0012034 132.0440 228.1827 15.30896962162574
MONITOR-3 (RS58S)       
1 57180U 23091Q   26156.08097433  .00012525  00000+0  46569-3 0  9997
2 57180  97.5083 219.4402 0012893 138.3403 221.8820 15.27587284162441
MONITOR-4 (RS57S)       
1 57182U 23091S   26156.12624716  .00013504  00000+0  50031-3 0  9991
2 57182  97.5077 219.4564 0012839 138.5653 221.6562 15.27687099162451
MONITOR-2 (RS39S)       
1 57184U 23091U   26156.19057727  .00005111  00000+0  24857-3 0  9994
2 57184  97.5073 214.5517 0012156 148.2477 211.9493 15.18792604162136
SVYATOBOR 1 (RS60S)     
1 57187U 23091X   26156.06353794  .00011413  00000+0  44045-3 0  9999
2 57187  97.5089 219.8150 0010741 130.9032 229.3138 15.26401507162463
VIZARD-METEO (RS38S)    
1 57189U 23091Z   26156.02909492  .00019122  00000+0  55313-3 0  9994
2 57189  97.5091 225.2740 0008750 113.6356 246.5807 15.35622627162820
POLYTECH-UNIVERSE 3 (R*)
1 57191U 23091AB  26156.08760850  .00006126  00000+0  29512-3 0  9998
2 57191  97.5049 213.9541 0016029 166.0188 194.1493 15.18994109162111
UTMN 2 (RS27S)          
1 57203U 23091AP  26155.91119858  .00014353  00000+0  46996-3 0  9995
2 57203  97.5088 222.9649 0009478 120.1397 240.0785 15.31737177162660
