OBJECT_NAME,OBJECT_ID,EPOCH,MEAN_MOTION,ECCENTRICITY,INCLINATION,RA_OF_ASC_NODE,ARG_OF_PERICENTER,MEAN_ANOMALY,EPHEMERIS_TYPE,CLASSIFICATION_TYPE,NORAD_CAT_ID,ELEMENT_SET_NO,REV_AT_EPOCH,BSTAR,MEAN_MOTION_DOT,MEAN_MOTION_DDOT
CUBEBUG-2 (LO-74),2013-066AA,2026-06-03T07:55:56.668800,14.93641817,.00594532,97.8904,103.2522,73.9566,286.8190,0,U,39440,999,67492,.47122985E-3,.5093E-4,0
FUNCUBE-1 (AO-73),2013-066AE,2026-06-04T14:14:41.227008,15.09331351,.00346471,97.8278,126.7780,245.3456,114.4162,0,U,39444,999,67776,.50552791E-3,.8112E-4,0
UWE-3,2013-066AG,2026-06-04T15:34:58.249920,14.96922367,.00493262,97.8702,111.6406,3.6109,356.5458,0,U,39446,999,67570,.40572144E-3,.4713E-4,0
UNISAT-6,2014-033C,2026-06-04T23:07:32.907648,14.88176164,.0046448,97.7872,308.8923,108.4393,252.1881,0,U,40012,999,64434,.44767E-3,.4154E-4,0
DUCHIFAT-1,2014-033M,2026-06-04T16:02:21.168384,15.62101054,.00048528,98.0472,213.0954,139.0185,221.1436,0,U,40021,999,65379,.10760804E-2,.95076E-3,0
QB50P1,2014-033R,2026-06-05T00:32:32.836992,15.18067732,.0007004,98.0971,166.3174,266.2794,93.7637,0,U,40025,999,65118,.45812E-3,.9267E-4,0
LILACSAT-2,2015-049K,2026-06-05T03:28:52.223232,15.51034080,.000536,97.4655,192.5317,303.7976,56.2765,0,U,40908,999,59388,.35563E-3,.20608E-3,0
FOX-1A (AO-85),2015-058D,2026-06-04T22:38:39.055776,14.90905473,.0129804,64.7764,317.0315,61.3870,300.0228,0,U,40967,999,11174,.31879E-3,.3528E-4,0
CAS-2T & KS-1Q,2016-066G,2026-06-04T15:14:10.867200,14.44651724,.03423023,98.3817,231.5141,167.4688,193.5290,0,U,41847,999,50298,.28544745E-3,.1982E-4,0
RADFXSAT (FOX-1B),2017-073E,2026-06-04T04:13:37.045344,15.12484658,.0151546,97.4712,22.6585,14.2510,346.2924,0,U,43017,999,46342,.49454647E-3,.11345E-3,0
DIWATA-2B,2018-084H,2026-06-05T03:58:49.259424,15.00392849,.0011794,98.1153,351.8538,210.4526,149.6013,0,U,43678,999,41441,.2282E-3,.2805E-4,0
ES'HAIL 2,2018-090A,2026-06-05T03:22:26.556096,1.00272936,.0001959,0.0174,3.7744,103.1702,223.0342,0,U,43700,999,2755,0,.156E-5,0
FOX-1CLIFF (AO-95),2018-099N,2026-06-05T01:58:43.175424,15.26442922,.0009283,97.4389,216.3757,40.1659,320.0264,0,U,43770,999,41137,.4228E-3,.10962E-3,0
ITASAT,2018-099AE,2026-06-04T18:27:04.237056,15.18892221,.0013386,97.4029,207.5292,42.5904,317.6366,0,U,43786,999,41102,.38812E-3,.805E-4,0
JY1SAT (JO-97),2018-099AX,2026-06-04T15:10:18.350112,15.33239560,.00042916,97.4135,218.4269,324.7580,35.3378,0,U,43803,999,41170,.57876514E-3,.18538E-3,0
UWE-4,2018-111E,2026-06-05T01:04:33.820032,15.45332944,.0007898,97.5859,83.8833,27.7618,332.4050,0,U,43880,999,40890,.73225E-3,.34971E-3,0
TIANYAN 01,2019-093C,2026-06-05T04:44:36.953952,14.86497461,.0014688,97.7532,228.7216,122.5332,237.7305,0,U,44881,999,34963,.59161E-4,.471E-5,0
RS-44 & BREEZE-KM R/B,2019-096E,2026-06-04T23:09:55.217088,12.79748585,.0217627,82.5219,347.8284,172.6842,187.7525,0,U,44909,999,30078,-.23756E-4,.6E-7,0
SALSAT,2020-068K,2026-06-04T23:29:13.611264,15.29615280,.0009245,97.8851,158.3021,356.4519,3.6652,0,U,46495,999,31349,.313E-3,.8911E-4,0
XW-3 (CAS-9),2021-131B,2026-06-05T04:24:47.568960,14.41346490,.0005097,98.4978,248.6387,124.3501,235.8171,0,U,50466,999,23338,.20962E-3,.634E-5,0
GREENCUBE (IO-117),2022-080E,2026-06-01T11:09:37.753056,6.42583280,.00088692,70.1435,303.7143,293.3663,66.6064,0,U,53109,999,9105,0,-.3E-7,0
UMKA 1 (RS40S),2023-091G,2026-06-05T02:50:36.214944,15.20674495,.0013554,97.5052,214.8631,155.8474,204.3399,0,U,57172,999,16217,.35997E-3,.7858E-4,0
CUBESX-HSE 3 (RS42S),2023-091N,2026-06-05T01:59:26.530080,15.30896962,.0012034,97.5092,221.5198,132.0440,228.1827,0,U,57178,999,16257,.54085E-3,.1612E-3,0
MONITOR-3 (RS58S),2023-091Q,2026-06-05T01:56:36.182112,15.27587284,.0012893,97.5083,219.4402,138.3403,221.8820,0,U,57180,999,16244,.46569E-3,.12525E-3,0
MONITOR-4 (RS57S),2023-091S,2026-06-05T03:01:47.754624,15.27687099,.0012839,97.5077,219.4564,138.5653,221.6562,0,U,57182,999,16245,.50031E-3,.13504E-3,0
MONITOR-2 (RS39S),2023-091U,2026-06-05T04:34:25.876128,15.18792604,.0012156,97.5073,214.5517,148.2477,211.9493,0,U,57184,999,16213,.24857E-3,.5111E-4,0
SVYATOBOR 1 (RS60S),2023-091X,2026-06-05T01:31:29.678016,15.26401507,.0010741,97.5089,219.8150,130.9032,229.3138,0,U,57187,999,16246,.44045E-3,.11413E-3,0
VIZARD-METEO (RS38S),2023-091Z,2026-06-05T00:41:53.801088,15.35622627,.000875,97.5091,225.2740,113.6356,246.5807,0,U,57189,999,16282,.55313E-3,.19122E-3,0
POLYTECH-UNIVERSE 3 (RS46S),2023-091AB,2026-06-05T02:06:09.374400,15.18994109,.0016029,97.5049,213.9541,166.0188,194.1493,0,U,57191,999,16211,.29512E-3,.6126E-4,0
UTMN 2 (RS27S),2023-091AP,2026-06-04T21:52:07.557312,15.31737177,.0009478,97.5088,222.9649,120.1397,240.0785,0,U,57203,999,16266,.46996E-3,.14353E-3,0
